{
  "type": "FeatureCollection",
  "features": [
    {
      "type": "Feature",
      "properties": {
        "norad_id": 44333,
        "name": "AT&T T-16",
        "group": "intelsat",
        "lat": 0.016072971958018194,
        "lon": 76.90024617545228,
        "alt_km": 35784.94688627751,
        "timestamp": "2025-12-26T05:31:12.167850+00:00",
        "meta_object_name": "AT&T T-16",
        "meta_object_id": "2019-034A",
        "meta_epoch": "2025-12-25T10:42:38.666304",
        "meta_mean_motion": 1.00270684,
        "meta_eccentricity": 7.98e-05,
        "meta_inclination": 0.0229,
        "meta_ra_of_asc_node": 69.9127,
        "meta_arg_of_pericenter": 71.5572,
        "meta_mean_anomaly": 12.5365,
        "meta_ephemeris_type": 0,
        "meta_classification_type": "U",
        "meta_norad_cat_id": 44333,
        "meta_element_set_no": 999,
        "meta_rev_at_epoch": 2389,
        "meta_bstar": 0,
        "meta_mean_motion_dot": -9.4e-07,
        "meta_mean_motion_ddot": 0,
        "tle_line1": "1 44333U 19034A   25359.44628086 -.00000094  00000+0  00000+0 0  9998",
        "tle_line2": "2 44333   0.0229  69.9127 0000798  71.5572  12.5365  1.00270684 23899"
      },
      "geometry": {
        "type": "Point",
        "coordinates": [
          76.90024617545228,
          0.016072971958018194
        ]
      }
    },
    {
      "type": "Feature",
      "properties": {
        "norad_id": 44476,
        "name": "INTELSAT 39 (IS-39)",
        "group": "intelsat",
        "lat": -0.013155398491464883,
        "lon": -120.2681434865562,
        "alt_km": 35787.0762922965,
        "timestamp": "2025-12-26T05:31:12.167861+00:00",
        "meta_object_name": "INTELSAT 39 (IS-39)",
        "meta_object_id": "2019-049B",
        "meta_epoch": "2025-12-25T22:58:31.327392",
        "meta_mean_motion": 1.00267496,
        "meta_eccentricity": 0.00012671,
        "meta_inclination": 0.0015,
        "meta_ra_of_asc_node": 28.3324,
        "meta_arg_of_pericenter": 123.6864,
        "meta_mean_anomaly": 349.2708,
        "meta_ephemeris_type": 0,
        "meta_classification_type": "U",
        "meta_norad_cat_id": 44476,
        "meta_element_set_no": 999,
        "meta_rev_at_epoch": 2339,
        "meta_bstar": 0,
        "meta_mean_motion_dot": 5.6e-07,
        "meta_mean_motion_ddot": 0,
        "tle_line1": "1 44476U 19049B   25359.95730703  .00000056  00000+0  00000+0 0  9995",
        "tle_line2": "2 44476   0.0015  28.3324 0001267 123.6864 349.2708  1.00267496 23396"
      },
      "geometry": {
        "type": "Point",
        "coordinates": [
          -120.2681434865562,
          -0.013155398491464883
        ]
      }
    },
    {
      "type": "Feature",
      "properties": {
        "norad_id": 46114,
        "name": "GALAXY 30 (G-30)",
        "group": "intelsat",
        "lat": 0.03048061636101186,
        "lon": 52.783838837701005,
        "alt_km": 35793.21180028463,
        "timestamp": "2025-12-26T05:31:12.167873+00:00",
        "meta_object_name": "GALAXY 30 (G-30)",
        "meta_object_id": "2020-056C",
        "meta_epoch": "2025-12-25T10:50:38.606208",
        "meta_mean_motion": 1.00271181,
        "meta_eccentricity": 0.0002181,
        "meta_inclination": 0.0184,
        "meta_ra_of_asc_node": 339.6266,
        "meta_arg_of_pericenter": 293.6625,
        "meta_mean_anomaly": 218.5799,
        "meta_ephemeris_type": 0,
        "meta_classification_type": "U",
        "meta_norad_cat_id": 46114,
        "meta_element_set_no": 999,
        "meta_rev_at_epoch": 1955,
        "meta_bstar": 0,
        "meta_mean_motion_dot": 5.8e-07,
        "meta_mean_motion_ddot": 0,
        "tle_line1": "1 46114U 20056C   25359.45183572  .00000058  00000+0  00000+0 0  9999",
        "tle_line2": "2 46114   0.0184 339.6266 0002181 293.6625 218.5799  1.00271181 19553"
      },
      "geometry": {
        "type": "Point",
        "coordinates": [
          52.783838837701005,
          0.03048061636101186
        ]
      }
    },
    {
      "type": "Feature",
      "properties": {
        "norad_id": 54026,
        "name": "GALAXY 33 (G-33)",
        "group": "intelsat",
        "lat": 0.01805000627884619,
        "lon": 44.79641953190945,
        "alt_km": 35791.06322209029,
        "timestamp": "2025-12-26T05:31:12.167885+00:00",
        "meta_object_name": "GALAXY 33 (G-33)",
        "meta_object_id": "2022-128A",
        "meta_epoch": "2025-12-24T04:31:51.326400",
        "meta_mean_motion": 1.00272122,
        "meta_eccentricity": 0.0001643,
        "meta_inclination": 0.0126,
        "meta_ra_of_asc_node": 315.9231,
        "meta_arg_of_pericenter": 309.5058,
        "meta_mean_anomaly": 122.5078,
        "meta_ephemeris_type": 0,
        "meta_classification_type": "U",
        "meta_norad_cat_id": 54026,
        "meta_element_set_no": 999,
        "meta_rev_at_epoch": 1198,
        "meta_bstar": 0,
        "meta_mean_motion_dot": 1e-06,
        "meta_mean_motion_ddot": 0,
        "tle_line1": "1 54026U 22128A   25358.18878850  .00000100  00000+0  00000+0 0  9999",
        "tle_line2": "2 54026   0.0126 315.9231 0001643 309.5058 122.5078  1.00272122 11987"
      },
      "geometry": {
        "type": "Point",
        "coordinates": [
          44.79641953190945,
          0.01805000627884619
        ]
      }
    },
    {
      "type": "Feature",
      "properties": {
        "norad_id": 54027,
        "name": "GALAXY 34 (G-34)",
        "group": "intelsat",
        "lat": 0.02807654630130272,
        "lon": 48.82334956248243,
        "alt_km": 35792.22191043507,
        "timestamp": "2025-12-26T05:31:12.167896+00:00",
        "meta_object_name": "GALAXY 34 (G-34)",
        "meta_object_id": "2022-128B",
        "meta_epoch": "2025-12-25T10:50:38.606208",
        "meta_mean_motion": 1.00270054,
        "meta_eccentricity": 0.0001738,
        "meta_inclination": 0.0222,
        "meta_ra_of_asc_node": 4.8394,
        "meta_arg_of_pericenter": 262.8726,
        "meta_mean_anomaly": 220.2033,
        "meta_ephemeris_type": 0,
        "meta_classification_type": "U",
        "meta_norad_cat_id": 54027,
        "meta_element_set_no": 999,
        "meta_rev_at_epoch": 1217,
        "meta_bstar": 0,
        "meta_mean_motion_dot": 0,
        "meta_mean_motion_ddot": 0,
        "tle_line1": "1 54027U 22128B   25359.45183572  .00000000  00000+0  00000+0 0  9990",
        "tle_line2": "2 54027   0.0222   4.8394 0001738 262.8726 220.2033  1.00270054 12178"
      },
      "geometry": {
        "type": "Point",
        "coordinates": [
          48.82334956248243,
          0.02807654630130272
        ]
      }
    },
    {
      "type": "Feature",
      "properties": {
        "norad_id": 54243,
        "name": "GALAXY 31 (G-31)",
        "group": "intelsat",
        "lat": 0.02096425318669368,
        "lon": 56.781529882088904,
        "alt_km": 35790.82292634737,
        "timestamp": "2025-12-26T05:31:12.167908+00:00",
        "meta_object_name": "GALAXY 31 (G-31)",
        "meta_object_id": "2022-153A",
        "meta_epoch": "2025-12-25T06:10:38.819136",
        "meta_mean_motion": 1.00271189,
        "meta_eccentricity": 0.0001633,
        "meta_inclination": 0.0095,
        "meta_ra_of_asc_node": 327.1033,
        "meta_arg_of_pericenter": 317.678,
        "meta_mean_anomaly": 140.8972,
        "meta_ephemeris_type": 0,
        "meta_classification_type": "U",
        "meta_norad_cat_id": 54243,
        "meta_element_set_no": 999,
        "meta_rev_at_epoch": 538,
        "meta_bstar": 0,
        "meta_mean_motion_dot": 3.4e-07,
        "meta_mean_motion_ddot": 0,
        "tle_line1": "1 54243U 22153A   25359.25739374  .00000034  00000+0  00000+0 0  9990",
        "tle_line2": "2 54243   0.0095 327.1033 0001633 317.6780 140.8972  1.00271189  5384"
      },
      "geometry": {
        "type": "Point",
        "coordinates": [
          56.781529882088904,
          0.02096425318669368
        ]
      }
    },
    {
      "type": "Feature",
      "properties": {
        "norad_id": 54244,
        "name": "GALAXY 32 (G-32)",
        "group": "intelsat",
        "lat": 0.027805085584001056,
        "lon": 86.79448239897866,
        "alt_km": 35791.43491835276,
        "timestamp": "2025-12-26T05:31:12.167919+00:00",
        "meta_object_name": "GALAXY 32 (G-32)",
        "meta_object_id": "2022-153B",
        "meta_epoch": "2025-12-24T22:56:22.028928",
        "meta_mean_motion": 1.00272509,
        "meta_eccentricity": 0.0001992,
        "meta_inclination": 0.0091,
        "meta_ra_of_asc_node": 20.8495,
        "meta_arg_of_pericenter": 295.2988,
        "meta_mean_anomaly": 30.6679,
        "meta_ephemeris_type": 0,
        "meta_classification_type": "U",
        "meta_norad_cat_id": 54244,
        "meta_element_set_no": 999,
        "meta_rev_at_epoch": 1139,
        "meta_bstar": 0,
        "meta_mean_motion_dot": -1.53e-06,
        "meta_mean_motion_ddot": 0,
        "tle_line1": "1 54244U 22153B   25358.95581052 -.00000153  00000+0  00000+0 0  9998",
        "tle_line2": "2 54244   0.0091  20.8495 0001992 295.2988  30.6679  1.00272509 11394"
      },
      "geometry": {
        "type": "Point",
        "coordinates": [
          86.79448239897866,
          0.027805085584001056
        ]
      }
    }
  ]
}